{
  "schema": "int-temerity-real-tle-snapshot/v1",
  "source": "celestrak",
  "group": "STARLINK",
  "format": "celestrak-gp-json",
  "source_url": "https://celestrak.org/NORAD/elements/gp.php?NAME=STARLINK&FORMAT=JSON",
  "downloaded_at": "2026-06-26T09:50:33.467Z",
  "generated_at": "2026-06-26T09:50:44.363Z",
  "fingerprint": "77a8ac15",
  "shell_id": "starlink-real-43deg-490km",
  "catalog_count": 10658,
  "shell_count": 3264,
  "selected_count": 1584,
  "mean_altitude_km": 490.2,
  "mean_inclination_deg": 43.0017,
  "mean_mean_motion_rev_per_day": 15.27576648,
  "layout": {
    "planes": 72,
    "satellites_per_plane": 22,
    "selection_strategy": "largest-shell-raan-clusters-even-slot-sampling",
    "raan_cluster_threshold_deg": 1.5
  },
  "satellites": [
    {
      "satellite_id": "P06-S09",
      "norad_id": 56703,
      "satellite_name": "STARLINK-30132",
      "cospar_id": "2023-067R",
      "shell_id": "starlink-real-43deg-490km",
      "plane_id": 5,
      "slot_id": 8,
      "epoch": "2026-06-25T15:12:13.112640",
      "inclination": 43.0039,
      "raan": 24.429399999999987,
      "eccentricity": 0.0001483,
      "argument_of_perigee": 270.4285,
      "mean_anomaly": 89.6397,
      "mean_motion": 15.27574483,
      "bstar": 0.000099174,
      "status": "active",
      "raw_omm": {
        "OBJECT_NAME": "STARLINK-30132",
        "OBJECT_ID": "2023-067R",
        "EPOCH": "2026-06-25T15:12:13.112640",
        "MEAN_MOTION": 15.27574483,
        "ECCENTRICITY": 0.0001483,
        "INCLINATION": 43.0039,
        "RA_OF_ASC_NODE": 24.4294,
        "ARG_OF_PERICENTER": 270.4285,
        "MEAN_ANOMALY": 89.6397,
        "EPHEMERIS_TYPE": 0,
        "CLASSIFICATION_TYPE": "U",
        "NORAD_CAT_ID": 56703,
        "ELEMENT_SET_NO": 999,
        "REV_AT_EPOCH": 17217,
        "BSTAR": 0.000099174,
        "MEAN_MOTION_DOT": 0.00002467,
        "MEAN_MOTION_DDOT": 0
      },
      "source": "celestrak",
      "source_url": "https://celestrak.org/NORAD/elements/gp.php?NAME=STARLINK&FORMAT=JSON",
      "catalog_fingerprint": "77a8ac15"
    },
    {
      "satellite_id": "P06-S10",
      "norad_id": 66449,
      "satellite_name": "STARLINK-34720",
      "cospar_id": "2025-259AD",
      "shell_id": "starlink-real-43deg-490km",
      "plane_id": 5,
      "slot_id": 9,
      "epoch": "2026-06-25T14:44:39.700896",
      "inclination": 43.0025,
      "raan": 25.12729999999999,
      "eccentricity": 0.0001482,
      "argument_of_perigee": 270.7203999999999,
      "mean_anomaly": 89.3478,
      "mean_motion": 15.2764024,
      "bstar": 0.00095038,
      "status": "active",
      "raw_omm": {
        "OBJECT_NAME": "STARLINK-34720",
        "OBJECT_ID": "2025-259AD",
        "EPOCH": "2026-06-25T14:44:39.700896",
        "MEAN_MOTION": 15.2764024,
        "ECCENTRICITY": 0.0001482,
        "INCLINATION": 43.0025,
        "RA_OF_ASC_NODE": 25.1273,
        "ARG_OF_PERICENTER": 270.7204,
        "MEAN_ANOMALY": 89.3478,
        "EPHEMERIS_TYPE": 0,
        "CLASSIFICATION_TYPE": "U",
        "NORAD_CAT_ID": 66449,
        "ELEMENT_SET_NO": 999,
        "REV_AT_EPOCH": 3588,
        "BSTAR": 0.00095038,
        "MEAN_MOTION_DOT": 0.00026031,
        "MEAN_MOTION_DDOT": 0
      },
      "source": "celestrak",
      "source_url": "https://celestrak.org/NORAD/elements/gp.php?NAME=STARLINK&FORMAT=JSON",
      "catalog_fingerprint": "77a8ac15"
    },
    {
      "satellite_id": "P06-S11",
      "norad_id": 59839,
      "satellite_name": "STARLINK-31887",
      "cospar_id": "2024-097E",
      "shell_id": "starlink-real-43deg-490km",
      "plane_id": 5,
      "slot_id": 10,
      "epoch": "2026-06-25T23:25:18.967872",
      "inclination": 43.0043,
      "raan": 23.168200000000013,
      "eccentricity": 0.0001387,
      "argument_of_perigee": 263.1898,
      "mean_anomaly": 96.87959999999998,
      "mean_motion": 15.27577208,
      "bstar": 0.00010246,
      "status": "active",
      "raw_omm": {
        "OBJECT_NAME": "STARLINK-31887",
        "OBJECT_ID": "2024-097E",
        "EPOCH": "2026-06-25T23:25:18.967872",
        "MEAN_MOTION": 15.27577208,
        "ECCENTRICITY": 0.0001387,
        "INCLINATION": 43.0043,
        "RA_OF_ASC_NODE": 23.1682,
        "ARG_OF_PERICENTER": 263.1898,
        "MEAN_ANOMALY": 96.8796,
        "EPHEMERIS_TYPE": 0,
        "CLASSIFICATION_TYPE": "U",
        "NORAD_CAT_ID": 59839,
        "ELEMENT_SET_NO": 999,
        "REV_AT_EPOCH": 11847,
        "BSTAR": 0.00010246,
        "MEAN_MOTION_DOT": 0.00002558,
        "MEAN_MOTION_DDOT": 0
      },
      "source": "celestrak",
      "source_url": "https://celestrak.org/NORAD/elements/gp.php?NAME=STARLINK&FORMAT=JSON",
      "catalog_fingerprint": "77a8ac15"
    },
    {
      "satellite_id": "P06-S12",
      "norad_id": 56709,
      "satellite_name": "STARLINK-30085",
      "cospar_id": "2023-067X",
      "shell_id": "starlink-real-43deg-490km",
      "plane_id": 5,
      "slot_id": 11,
      "epoch": "2026-06-24T23:46:09.953472",
      "inclination": 43.0011,
      "raan": 24.79419999999999,
      "eccentricity": 0.00013226,
      "argument_of_perigee": 269.19010000000003,
      "mean_anomaly": 90.88,
      "mean_motion": 15.27579002,
      "bstar": 0.000055540709,
      "status": "active",
      "raw_omm": {
        "OBJECT_NAME": "STARLINK-30085",
        "OBJECT_ID": "2023-067X",
        "EPOCH": "2026-06-24T23:46:09.953472",
        "MEAN_MOTION": 15.27579002,
        "ECCENTRICITY": 0.00013226,
        "INCLINATION": 43.0011,
        "RA_OF_ASC_NODE": 24.7942,
        "ARG_OF_PERICENTER": 269.1901,
        "MEAN_ANOMALY": 90.88,
        "EPHEMERIS_TYPE": 0,
        "CLASSIFICATION_TYPE": "U",
        "NORAD_CAT_ID": 56709,
        "ELEMENT_SET_NO": 999,
        "REV_AT_EPOCH": 17185,
        "BSTAR": 0.000055540709,
        "MEAN_MOTION_DOT": 0.00001266,
        "MEAN_MOTION_DDOT": 0
      },
      "source": "celestrak",
      "source_url": "https://celestrak.org/NORAD/elements/gp.php?NAME=STARLINK&FORMAT=JSON",
      "catalog_fingerprint": "77a8ac15"
    },
    {
      "satellite_id": "P06-S13",
      "norad_id": 59837,
      "satellite_name": "STARLINK-31927",
      "cospar_id": "2024-097C",
      "shell_id": "starlink-real-43deg-490km",
      "plane_id": 5,
      "slot_id": 12,
      "epoch": "2026-06-25T13:23:22.402752",
      "inclination": 43.0048,
      "raan": 25.19720000000001,
      "eccentricity": 0.0001285,
      "argument_of_perigee": 274.2337,
      "mean_anomaly": 85.83679999999998,
      "mean_motion": 15.27580624,
      "bstar": 0.00012298,
      "status": "active",
      "raw_omm": {
        "OBJECT_NAME": "STARLINK-31927",
        "OBJECT_ID": "2024-097C",
        "EPOCH": "2026-06-25T13:23:22.402752",
        "MEAN_MOTION": 15.27580624,
        "ECCENTRICITY": 0.0001285,
        "INCLINATION": 43.0048,
        "RA_OF_ASC_NODE": 25.1972,
        "ARG_OF_PERICENTER": 274.2337,
        "MEAN_ANOMALY": 85.8368,
        "EPHEMERIS_TYPE": 0,
        "CLASSIFICATION_TYPE": "U",
        "NORAD_CAT_ID": 59837,
        "ELEMENT_SET_NO": 999,
        "REV_AT_EPOCH": 11841,
        "BSTAR": 0.00012298,
        "MEAN_MOTION_DOT": 0.00003124,
        "MEAN_MOTION_DDOT": 0
      },
      "source": "celestrak",
      "source_url": "https://celestrak.org/NORAD/elements/gp.php?NAME=STARLINK&FORMAT=JSON",
      "catalog_fingerprint": "77a8ac15"
    },
    {
      "satellite_id": "P06-S14",
      "norad_id": 59513,
      "satellite_name": "STARLINK-31658",
      "cospar_id": "2024-073C",
      "shell_id": "starlink-real-43deg-490km",
      "plane_id": 5,
      "slot_id": 13,
      "epoch": "2026-06-25T23:48:31.279680",
      "inclination": 43.0033,
      "raan": 26.1139,
      "eccentricity": 0.0001641,
      "argument_of_perigee": 231.06719999999996,
      "mean_anomaly": 129.00329999999997,
      "mean_motion": 15.27590435,
      "bstar": 8.6528e-7,
      "status": "active",
      "raw_omm": {
        "OBJECT_NAME": "STARLINK-31658",
        "OBJECT_ID": "2024-073C",
        "EPOCH": "2026-06-25T23:48:31.279680",
        "MEAN_MOTION": 15.27590435,
        "ECCENTRICITY": 0.0001641,
        "INCLINATION": 43.0033,
        "RA_OF_ASC_NODE": 26.1139,
        "ARG_OF_PERICENTER": 231.0672,
        "MEAN_ANOMALY": 129.0033,
        "EPHEMERIS_TYPE": 0,
        "CLASSIFICATION_TYPE": "U",
        "NORAD_CAT_ID": 59513,
        "ELEMENT_SET_NO": 999,
        "REV_AT_EPOCH": 12319,
        "BSTAR": 8.6528e-7,
        "MEAN_MOTION_DOT": -0.00000238,
        "MEAN_MOTION_DDOT": 0
      },
      "source": "celestrak",
      "source_url": "https://celestrak.org/NORAD/elements/gp.php?NAME=STARLINK&FORMAT=JSON",
      "catalog_fingerprint": "77a8ac15"
    }
  ]
}